{
    "links": {
        "self": "http://www.neowsapp.com/rest/v1/neo/3749062?api_key=iIulBulltgU6a56xZRHN4H3l9WmuAYTsLGpBGhQ2"
    },
    "id": "3749062",
    "neo_reference_id": "3749062",
    "name": "(2016 GQ2)",
    "designation": "2016 GQ2",
    "nasa_jpl_url": "http://ssd.jpl.nasa.gov/sbdb.cgi?sstr=3749062",
    "absolute_magnitude_h": 20.4,
    "estimated_diameter": {
        "kilometers": {
            "estimated_diameter_min": 0.2210828104,
            "estimated_diameter_max": 0.4943561926
        },
        "meters": {
            "estimated_diameter_min": 221.0828103591,
            "estimated_diameter_max": 494.3561926196
        },
        "miles": {
            "estimated_diameter_min": 0.137374447,
            "estimated_diameter_max": 0.3071786018
        },
        "feet": {
            "estimated_diameter_min": 725.3373275385,
            "estimated_diameter_max": 1621.9035709942
        }
    },
    "is_potentially_hazardous_asteroid": false,
    "close_approach_data": [
        {
            "close_approach_date": "2006-05-22",
            "close_approach_date_full": "2006-May-22 03:06",
            "epoch_date_close_approach": 1148267160000,
            "relative_velocity": {
                "kilometers_per_second": "8.9059132243",
                "kilometers_per_hour": "32061.2876075384",
                "miles_per_hour": "19921.637291473"
            },
            "miss_distance": {
                "astronomical": "0.9844708003",
                "lunar": "382.9591413167",
                "kilometers": "147274734.802075361",
                "miles": "91512276.7253515418"
            },
            "orbiting_body": "Juptr"
        },
        {
            "close_approach_date": "2016-03-01",
            "close_approach_date_full": "2016-Mar-01 12:05",
            "epoch_date_close_approach": 1456833900000,
            "relative_velocity": {
                "kilometers_per_second": "31.22660968",
                "kilometers_per_hour": "112415.7948481246",
                "miles_per_hour": "69850.8031932694"
            },
            "miss_distance": {
                "astronomical": "0.1915386724",
                "lunar": "74.5085435636",
                "kilometers": "28653777.413667788",
                "miles": "17804631.6731119544"
            },
            "orbiting_body": "Earth"
        },
        {
            "close_approach_date": "2018-04-06",
            "close_approach_date_full": "2018-Apr-06 07:24",
            "epoch_date_close_approach": 1522999440000,
            "relative_velocity": {
                "kilometers_per_second": "7.8934748372",
                "kilometers_per_hour": "28416.5094138379",
                "miles_per_hour": "17656.9138632817"
            },
            "miss_distance": {
                "astronomical": "0.6725031365",
                "lunar": "261.6037200985",
                "kilometers": "100605036.788719255",
                "miles": "62513071.090885519"
            },
            "orbiting_body": "Juptr"
        },
        {
            "close_approach_date": "2030-02-02",
            "close_approach_date_full": "2030-Feb-02 00:20",
            "epoch_date_close_approach": 1896222000000,
            "relative_velocity": {
                "kilometers_per_second": "8.1721159914",
                "kilometers_per_hour": "29419.6175689172",
                "miles_per_hour": "18280.2062610864"
            },
            "miss_distance": {
                "astronomical": "0.7488598562",
                "lunar": "291.3064840618",
                "kilometers": "112027839.416026294",
                "miles": "69610871.5141150972"
            },
            "orbiting_body": "Juptr"
        }
    ],
    "orbital_data": {
        "orbit_id": "7",
        "orbit_determination_date": "2020-05-29 06:05:54",
        "first_observation_date": "2016-04-01",
        "last_observation_date": "2016-04-13",
        "data_arc_in_days": 12,
        "observations_used": 26,
        "orbit_uncertainty": "8",
        "minimum_orbit_intersection": ".182136",
        "jupiter_tisserand_invariant": "2.724",
        "epoch_osculation": "2457486.5",
        "eccentricity": ".8664910101107438",
        "semi_major_axis": "2.551631451224174",
        "inclination": "11.62956800101591",
        "ascending_node_longitude": "226.3878571907466",
        "orbital_period": "1488.762245696122",
        "perihelion_distance": ".3406657376225963",
        "perihelion_argument": "177.877310670423",
        "aphelion_distance": "4.762597164825751",
        "perihelion_time": "2457408.822079557033",
        "mean_anomaly": "18.78342323652395",
        "mean_motion": ".2418116129964524",
        "equinox": "J2000",
        "orbit_class": {
            "orbit_class_type": "APO",
            "orbit_class_description": "Near-Earth asteroid orbits which cross the Earth’s orbit similar to that of 1862 Apollo",
            "orbit_class_range": "a (semi-major axis) > 1.0 AU; q (perihelion) < 1.017 AU"
        }
    },
    "is_sentry_object": false
}